{
  "type": "FeatureCollection",
  "name": "licenses",
  "crs": {
    "type": "name",
    "properties": { "name": "urn:ogc:def:crs:OGC:1.3:CRS84" }
  },
  "features": [
    {
      "type": "Feature",
      "properties": {
        "name": "ЛУ Северный",
        "elevation": 0
      },
      "geometry": {
        "type": "Polygon",
        "coordinates": [
          [
            [73.3, 61.22],
            [73.5, 61.22],
            [73.52, 61.3],
            [73.44, 61.37],
            [73.31, 61.34],
            [73.3, 61.22]
          ]
        ]
      }
    },
    {
      "type": "Feature",
      "properties": {
        "name": "ЛУ Южный",
        "elevation": 0
      },
      "geometry": {
        "type": "Polygon",
        "coordinates": [
          [
            [73.33, 61.18],
            [73.46, 61.18],
            [73.47, 61.225],
            [73.34, 61.23],
            [73.33, 61.18]
          ]
        ]
      }
    }
  ]
}
