{
  "type": "FeatureCollection",
  "name": "wellheads",
  "crs": {
    "type": "name",
    "properties": { "name": "urn:ogc:def:crs:OGC:1.3:CRS84" }
  },
  "features": [
    {
      "type": "Feature",
      "properties": {
        "name": "101",
        "амплитуда_ротора": 52.4
      },
      "geometry": { "type": "Point", "coordinates": [73.36, 61.27] }
    },
    {
      "type": "Feature",
      "properties": {
        "name": "102",
        "амплитуда_ротора": 48.1
      },
      "geometry": { "type": "Point", "coordinates": [73.41, 61.3] }
    },
    {
      "type": "Feature",
      "properties": {
        "name": "205",
        "альтитуда_ротора": 61.7
      },
      "geometry": { "type": "Point", "coordinates": [73.47, 61.25] }
    },
    {
      "type": "Feature",
      "properties": {
        "name": "310",
        "kb": 44
      },
      "geometry": { "type": "Point", "coordinates": [73.39, 61.34] }
    }
  ]
}
